{"fetched_at":"2026-03-29T16:36:15Z","count":15609,"tles":[{"name":"STARLINK-11445 [DTC]","line1":"1 62414U 24249F   26087.90139742  .00299594  00000+0  22363-2 0  9991","line2":"2 62414  42.9993  51.7182 0000858 180.4316 179.6551 15.71040003 72502","category":"Starlink"}]}