{
  "norad_id": 62414,
  "name": "STARLINK-11445 [DTC]",
  "history": [
    {
      "epoch": "2026-03-28T21:38:00.737088Z",
      "apogee_km": 356.5012585981076,
      "perigee_km": 355.3456938203899,
      "latitude_deg": -2.591592396449722e-06,
      "longitude_deg": -99.10006772931618,
      "height_km": 356.2722160134936,
      "semi_major_axis_km": 6734.060476209249,
      "eccentricity": 8.58e-05,
      "inclination_deg": 42.9993,
      "raan_deg": 51.7182,
      "arg_perigee_deg": 180.4316,
      "mean_anomaly_deg": 179.6551,
      "mean_motion_rev_day": 15.71040003
    }
  ]
}